0 THORAD AGENA D DEB
1  5347U 70025KL  19079.72040666 +.00000356 +00000-0 +36585-3 0  9994
2  5347 099.9138 162.4150 0045942 255.4457 256.8249 13.83365233390820
0 THORAD AGENA D DEB
1  5349U 70025KN  19080.41513687  .00000819  00000-0  58952-3 0  9998
2  5349  99.8477  59.1424 0069515 162.0064 198.3580 13.99003062378215
0 SL-8 DEB
1  5358U 70086D   19079.84098723 +.00001118 +00000-0 +85504-4 0  9996
2  5358 074.0221 221.2410 0003319 334.0014 026.1007 15.03333686613994
0 THOR DELTA 1 DEB
1  5360U 71024C   19079.84359340 +.00000010 +00000-0 -30147-5 0  9992
2  5360 088.3026 206.3798 0042230 180.6729 333.6502 12.67860296219429
0 THOR DELTA 1 DEB
1  5360U 71024C   19079.84359340  .00000010  00000-0 -30147-5 0  9992
2  5360  88.3026 206.3798 0042230 180.6729 333.6502 12.67860296219698
0 OV1-5 DEB
1  5361U 66025G   19079.57047540 +.00001165 +00000-0 +36908-3 0  9994
2  5361 144.6205 005.3633 0033710 281.7906 077.9005 14.24048011989263
0 OV1-20/OV1-21 DEB
1  5384U 71067N   19079.81074226 +.00000071 +00000-0 +22643-4 0  9996
2  5384 087.6316 030.0528 0081632 024.1842 336.3147 14.23735689466700
0 OV1-20/OV1-21 DEB
1  5384U 71067N   19080.37299507  .00000068  00000-0  21327-4 0  9994
2  5384  87.6317  29.9008 0081571  22.3860 338.0858 14.23735705466991
0 THORAD AGENA D DEB *
1  5387U 70025KS  19080.71869571  .00000345  00000-0  20505-2 0  9995
2  5387 101.0951 124.8499 0699053 214.7027 277.7832 12.08112791  2509
0 THORAD AGENA D DEB *
1  5387U 70025KS  19079.97216764 +.00000350 +00000-0 +20773-2 0  9994
2  5387 101.0954 124.2025 0698961 216.0687 270.9828 12.08112057002410
0 THORAD AGENA D DEB
1  5388U 70025KT  19079.77269620 +.00000163 +00000-0 +38140-3 0  9992
2  5388 099.7209 078.7126 0140220 070.2154 023.2030 13.35312949372496
0 THORAD AGENA D DEB
1  5388U 70025KT  19080.21521128  .00000160  00000-0  37544-3 0  9991
2  5388  99.7210  79.1336 0140222  69.1556 350.4191 13.35313137372696
0 THORAD AGENA D DEB
1  5390U 70025KV  19079.99246157  .00000273  00000-0  30138-3 0  9990
2  5390 100.1143 265.2240 0053136 341.5639 172.3616 13.81418901443787
0 THORAD AGENA D DEB
1  5392U 70025KX  19080.24703684  .00000537  00000-0  37472-3 0  9996
2  5392 100.0708  71.1901 0048497 200.2906 159.6330 14.03251112473121
0 OV1-20/OV1-21 AKM
1  5395U 71067K   19080.87473668  .00000202  00000-0  60622-4 0  9994
2  5395  87.6220 333.7053 0058767 188.3782 171.6442 14.37187209477570
0 OV1-20/OV1-21 AKM
1  5395U 71067K   19079.89997943 +.00000200 +00000-0 +59897-4 0  9991
2  5395 087.6221 333.9757 0058642 191.6499 168.3348 14.37186862477222
0 OV1-21 R/B
1  5397U 71067B   19079.95661570 +.00000036 +00000-0 +87448-5 0  9995
2  5397 087.6260 061.5216 0083816 038.4397 322.2721 14.17478325459667
0 OV1-21 R/B
1  5397U 71067B   19079.95661570  .00000036  00000-0  87448-5 0  9995
2  5397  87.6260  61.5216 0083816  38.4397 322.2721 14.17478325459870
0 RIGIDSPHERE 2 (LCS 4)
1  5398U 71067E   19079.92828664 +.00000167 +00000-0 +52534-4 0  9994
2  5398 087.6275 349.5584 0062556 333.2100 026.5869 14.33776973494515
0 RIGIDSPHERE 2 (LCS 4)
1  5398U 71067E   19080.76576616  .00000161  00000-0  50697-4 0  9997
2  5398  87.6274 349.3279 0062454 330.4117  29.3551 14.33777196494862
0 COSMOS 397 DEB *
1  5416U 71015BN  19080.00577326  .00000241  00000-0  33192-3 0  9996
2  5416  65.7883  85.8122 0061783 169.0877 211.7336 13.75149085928863
0 EOLE 1 (CAS-A)
1  5435U 71071A   19080.74766232 -.00000116  00000-0  18124-4 0  9997
2  5435  50.1407 255.9928 0110286 278.7684  80.0768 14.55167548511154
0 EOLE 1 (CAS-A)
1  5435U 71071A   19079.92358354 -.00000104 +00000-0 +20498-4 0  9991
2  5435 050.1407 259.6329 0110283 275.7884 083.0480 14.55167466490380
0 SCOUT B-1 R/B
1  5438U 71071B   19080.52797072 -.00000069  00000-0  27978-4 0  9996
2  5438  50.1463  99.4270 0107539  26.2790 334.3541 14.57668784513416
0 DELTA 1 DEB
1  5443U 67114E   19079.90906758 -.00000030 +00000-0 +76239-4 0  9990
2  5443 101.2582 115.4752 0062023 224.6353 258.4779 12.56721114354958
0 TITAN 3C TRANSTAGE DEB
1  5457U 65108J   19079.90322071 +.00000281 +00000-0 +18351-1 0  9991
2  5457 027.5123 357.1208 6645525 115.5237 350.6245 02.71127405151737
0 TITAN 3C TRANSTAGE DEB
1  5457U 65108J   19079.90322071  .00000281  00000-0  18351-1 0  9991
2  5457  27.5123 357.1208 6645525 115.5237 350.6245  2.71127405151726
0 SHINSEI (MS-F2)
1  5485U 71080A   19079.88973625 +.00000004 +00000-0 -53695-4 0  9999
2  5485 032.0565 027.8349 0640320 190.6790 167.9598 12.74132875211712
0 SHINSEI (MS-F2)
1  5485U 71080A   19080.28152108  .00000005  00000-0 -51341-4 0  9997
2  5485  32.0567  26.1397 0640346 193.2702 165.0287 12.74132878211918
0 M-4S R/B
1  5498U 71080B   19080.71116395  .00000062  00000-0  57451-4 0  9997
2  5498  32.0320 337.2940 0574394 195.8921 162.2931 12.88345937236424
0 M-4S R/B
1  5498U 71080B   19079.93623950 +.00000055 +00000-0 +44847-4 0  9996
2  5498 032.0319 340.7299 0574364 190.6379 168.1589 12.88345862236055
0 THORAD AGENA D DEB
1  5502U 70025LG  19079.86475927 +.00001614 +00000-0 +54473-3 0  9998
2  5502 099.5389 302.1796 0032078 335.1952 024.7688 14.38295307474791
0 THORAD AGENA D DEB
1  5502U 70025LG  19080.83867344  .00001627  00000-0  54897-3 0  9999
2  5502  99.5388 303.2605 0032034 332.4624  27.4861 14.38298728475243
0 THORAD AGENA D DEB
1  5507U 70025LL  19079.60166121 +.00000816 +00000-0 +44848-3 0  9996
2  5507 099.2684 320.0052 0033934 023.2700 336.9999 14.14412646476003
0 THORAD AGENA D DEB
1  5519U 69082HY  19080.13171124  .00000159  00000-0  71140-4 0  9995
2  5519  70.0536 274.8272 0052421 342.2692  17.6605 14.37696597570720
0 COSMOS 397 DEB *
1  5529U 71015BT  19080.42893677  .00000241  00000-0  11826-3 0  9997
2  5529  66.8438 100.4266 0065532 301.2722  58.1970 14.32140012479924
0 COSMOS 397 DEB *
1  5531U 71015BV  19079.99732783  .00000168  00000-0  99993-4 0  9990
2  5531  66.6649 303.5969 0030111 143.1424 217.1751 14.28851991474381
0 COSMOS 445
1  5548U 71086B   19079.91765948 -.00000019 +00000-0 -12756-4 0  9996
2  5548 074.0247 258.5067 0103569 317.8357 194.2000 12.58179753178504
0 COSMOS 446
1  5549U 71086C   19079.94003530 -.00000023 +00000-0 -46490-4 0  9999
2  5549 074.0275 062.7974 0083203 148.0281 241.5528 12.54413640172057
0 COSMOS 447
1  5550U 71086D   19079.84461549 -.00000030 +00000-0 -91655-4 0  9999
2  5550 074.0271 228.9188 0066201 343.5508 168.1008 12.50578564165480
0 COSMOS 447
1  5550U 71086D   19080.79389722 -.00000035  00000-0 -12084-3 0  9990
2  5550  74.0272 227.6557 0066216 342.1106 121.8574 12.50578509165777
0 COSMOS 448
1  5551U 71086E   19080.34811164 -.00000026  00000-0 -72820-4 0  9997
2  5551  74.0305  34.3267 0049212 183.7270 332.7176 12.46721706159097
0 COSMOS 448
1  5551U 71086E   19079.91635064 -.00000032 +00000-0 -10974-3 0  9999
2  5551 074.0305 034.8971 0049241 184.3762 194.8845 12.46721680158785
0 COSMOS 450
1  5553U 71086G   19079.86559491 -.00000029 +00000-0 -10054-3 0  9999
2  5553 074.0285 208.4868 0042355 047.2308 127.6733 12.42659384151780
0 COSMOS 451
1  5554U 71086H   19079.80697285 -.00000030 +00000-0 -11936-3 0  9990
2  5554 074.0289 203.5341 0052869 144.2586 010.0304 12.34272477137276
0 COSMOS 451
1  5554U 71086H   19080.34633310 -.00000037  00000-0 -17623-3 0  9996
2  5554  74.0289 202.8382 0052867 143.4454 246.6385 12.34272381137579
0 SL-8 R/B
1  5555U 71086J   19079.65624958 +.00000032 +00000-0 +40899-3 0  9991
2  5555 074.0192 146.0890 0075726 176.6999 346.7694 12.26944206124414
0 OPS 4311 (DMSP 5B F1)
1  5557U 71087A   19079.86875322 -.00000000 +00000-0 +19369-4 0  9995
2  5557 099.0828 036.0341 0051080 335.3753 024.4988 14.27118061463010
0 ASTEX 1
1  5560U 71089A   19079.88636896 +.00000063 +00000-0 +17229-4 0  9995
2  5560 092.7170 050.4030 0017137 026.4775 333.7301 14.48008435493740
0 ASTEX 1
1  5560U 71089A   19080.85383686  .00000064  00000-0  17596-4 0  9998
2  5560  92.7171  50.7149 0017028  23.4250 336.7726 14.48008596494124
0 PROSPERO (BLACK ARROW)
1  5580U 71093A   19079.91605546 +.00000115 +00000-0 +21551-4 0  9995
2  5580 082.0388 073.6145 0528834 192.9582 165.7548 13.94420952379296
0 BLACK ARROW R/B
1  5581U 71093B   19080.57417970  .00000138  00000-0  29258-4 0  9999
2  5581  82.0382 103.4898 0532702 293.6213  60.9890 13.93155454378158
0 OPS 9432 (DSCS 2-2)
1  5588U 71095B   19080.73082475  .00000087  00000-0  00000+0 0  9996
2  5588   8.0671 300.5925 0007339  21.5895 142.3915  1.00197139172169
0 OPS 9432 (DSCS 2-2)
1  5588U 71095B   19079.83265027 +.00000088 +00000-0 +00000-0 0  9993
2  5588 008.0689 300.6037 0007343 021.4467 178.5363 01.00196691020838
0 TITAN 3C TRANSTAGE R/B
1  5589U 71095C   19079.42622370 -.00000252 +00000-0 +00000-0 0  9991
2  5589 009.9119 305.7351 0154427 111.7557 235.8399 00.97189013093708
0 TITAN 3C TRANSTAGE R/B
1  5589U 71095C   19080.05217341 -.00000239  00000-0  00000+0 0  9994
2  5589   9.9106 305.7278 0154426 111.7739  94.8391  0.97188818 93711
0 COSMOS 252 DEB *
1  5595U 68097CW  19079.99306533  .00002304  00000-0  15623-3 0  9997
2  5595  62.7134 132.7035 0205049 140.7862 220.8295 14.94152863223646
0 COSMOS 397 DEB *
1  5597U 71015CA  19080.40637005  .00000773  00000-0  20140-3 0  9990
2  5597  66.5730  83.4784 0035310 306.2074  53.5772 14.54783610485930
0 COSMOS 457
1  5614U 71099A   19080.34688375 -.00000028  00000-0 -24196-4 0  9992
2  5614  74.0367  12.0959 0022352  79.0664  65.8090 13.16043479273870
0 COSMOS 457
1  5614U 71099A   19079.79018449 +.00000016 +00000-0 +92507-4 0  9994
2  5614 074.0382 012.9296 0022326 080.0304 308.2807 13.16044987273532
0 SL-8 R/B
1  5615U 71099B   19079.66579956 +.00000018 +00000-0 +96544-4 0  9993
2  5615 074.0319 297.9084 0022732 332.8878 104.3379 13.17607347276288
